#dP2023  2  7 12  0  0.00000000      96 __u+U ITR00 EXT  IAC
## 2248 216000.00000000   900.00000000 59982 0.5000000000000
+  119   C06C07C08C09C10C11C12C13C14C16C19C20C21C22C23C24C25
+        C26C27C28C29C30C32C33C34C35C36C37C38C39C40C41C42C43
+        C44C45C46E01E02E03E04E05E07E08E09E10E11E12E13E14E15
+        E18E19E21E24E25E26E27E30E31E33E34E36G01G02G03G04G05
+        G06G07G08G09G10G11G12G13G14G15G16G17G18G19G20G21G22
+        G23G24G25G26G27G28G29G30G31G32J02J03R01R02R03R04R05
+        R07R08R09R11R12R13R14R15R16R17R18R19R20R21R22R24R25
++         9  9 10  8  9  9 10  8  7  9 10  8  9  7  8  8  8
++         8  8  8  8  9  9  9  7  8  8  9  9 10 10  8  8  8
++         7  7  9  7  7  7  7  6  9  8  7  7  8  8  7  7  7
++         6  7  6  7  7  9  7  7  8  7  7  7  6  7  7  8  6
++         6  7  7  6  8  7  7  8  7  7  6  7  8  8  6  6  8
++         8  7  7  7  7  8  8  6  6  7  9  9  9  9  9  8  9
++        10  8  7  8  7  6  8  8  6  9  7  8  8  9  7 10 10
%c M  cc GPS ccc cccc cccc cccc cccc ccccc ccccc ccccc ccccc
%c cc cc ccc ccc cccc cccc cccc cccc ccccc ccccc ccccc ccccc
%f  0.0000000  0.000000000  0.00000000000  0.000000000000000
%f  0.0000000  0.000000000  0.00000000000  0.000000000000000
%i    0    0    0    0      0      0      0      0         0
%i    0    0    0    0      0      0      0      0         0
/* IAC                                ULTRA-RAPID PREDICTION
/* S/V CLOCKS ARE ALIGNED TO GNSS TIME                      
/* G:C1WC2W R:C1PC2P E:C1XC5X C:C2IC6I J:C1CC2S             
/* PCV:IGS20_2239 OL/AL:FES2004  NONE     YN ORB:CoN CLK:CoN
*  2023 02 08  7 15  0.00000000
PC06 -12815.321365  40008.463653   -528.110856   -190.599059
PC07  -3249.395384  29947.468762  29590.284132    144.755302
PC08 -16336.320583  22755.088322 -31565.099517    526.902642
PC09  -7696.193885  40268.983637   8926.390914    589.063059
PC10   3733.627321  32624.440569  26984.724962     15.811604
PC11  11587.810452  14477.341565 -20788.725497   -132.571116
PC12   1181.485595  26818.826731  -7584.417764    440.904148
PC13 -10139.223631  24127.116567 -32960.941137    202.704443
PC14  22940.740316  15859.864441   1630.402666    456.022030
PC16 -13343.822213  39772.339563  -1804.098987     63.969576
PC19 -24123.955985  -9094.648572 -10631.265919   -894.762036
PC20 -18993.739404 -19508.301841   6069.476827    733.174313
PC21   1983.030960  18948.275485 -20378.652675   -911.915911
PC22 -15561.274858   7104.641106 -22041.017552   -643.870935
PC23  24382.432095 -13076.231889  -3613.070138   -875.870976
PC24   9584.863317  13523.678945  22426.683639   -437.749143
PC25  24816.734177  -1161.091219  12673.421511     68.529192
PC26  -8627.349018  18710.027824  18819.746727    -75.741843
PC27   4288.599692 -27574.549003   -747.397770     93.614852
PC28  13718.448059 -18264.563114 -16026.640952     68.068028
PC29 -15744.250955  -2715.899466  22875.651830     78.241503
PC30  -8330.313391 -22040.673636  14966.890982      1.198846
PC32  -2000.258925 -18906.896800  20442.354132   -627.621410
PC33  24218.188336   8999.179091  10572.992459   -874.417837
PC34   9058.175365  21084.785512 -15869.519352    101.445692
PC35 -13576.476670  17601.974092  16836.419198    684.131295
PC36 -24581.239894     68.612012 -13206.664944   -639.517072
PC37  10452.364282 -18515.694809 -18055.262736   -826.213154
PC38 -23918.991192  24076.031672 -25059.206396     57.366166
PC39 -15468.063171  37886.447934  -9616.259579     -1.729784
PC40  -6373.255257  25077.824484  33325.179982    -14.563307
PC41  16065.674778  -6693.704227  21869.173307   -586.960434
PC42  18259.032258  19843.333252  -7177.274625   -848.892277
PC43  15734.188935   3668.086504 -22759.634292      6.119045
PC44  -3379.851647  27665.551125    903.022210      8.739641
PC45 -24244.787025  13255.193769   4000.764638    -57.738637
PC46 -11419.709401 -12421.587174 -22242.437007    -31.953157
PE01  29141.916426   5060.545234    939.117190   -600.323393
PE02 -29217.965291  -4796.351732   -542.063441     19.520954
PE03 -19134.960160  -7739.376936 -21216.515092   -647.910038
PE04  12345.329405 -13339.687485  23369.460055    -53.659519
PE05 -14820.073671 -24783.164301  -6511.288012    -97.411353
PE07   1843.447638  27062.046125 -11851.036780    -21.315969
PE08 -12266.837683  13177.294214 -23496.842502    -32.610178
PE09  -1806.509883 -26960.376209  12075.807772   -828.570974
PE10  16644.539592 -24319.420785   2779.899515   -510.867818
PE11   9102.691928 -25083.612589  12828.106080    798.287625
PE12  21004.784548 -19771.824270  -6686.637153   -414.257170
PE13  -9788.401916  25176.254800 -12082.279413     -0.125800
PE14   7640.840628 -21459.722526 -15446.965171    136.174449
PE15 -21042.780871  19581.736655   7055.398414    688.744110
PE18   5118.438268  29572.559400   2579.360813   -415.626158
PE19  19102.705874  10667.554432  19940.043498  -3287.255110
PE21  19490.487817  14561.847357  16845.498233   -510.930137
PE24   3063.461912 -16519.419302 -24388.623199  -1102.442706
PE25 -19221.331474 -14680.248400 -17074.292803   -598.931275
PE26   7851.073728  15403.981942 -24015.584179     12.152403
PE27  -2054.302020  16610.215541  24410.051309   -507.154964
PE30 -22711.494421   8402.108858  17022.416808  -1225.340191
PE31  22141.817607  -8861.634954 -17524.047534   -515.466480
PE33  19793.957618  -2495.566207 -21862.009382   -452.495097
PE34 -19853.722805   2679.469547  21791.983433    -28.997730
PE36  -7059.558466 -15966.135480  23914.525887     -9.265456
PG01 -12841.131279  21707.658418  -8039.790835    214.950799
PG02   8542.131827 -23258.883573  10502.919155   -622.262120
PG03  -6912.135969  13610.833700 -21845.618696   -365.535444
PG04  -2089.138010  23398.949088 -12278.858609    -32.067038
PG05  21467.197409  -6462.021792  14163.779193   -115.089215
PG06  15835.764044   3159.767492 -21037.337946    569.811373
PG07     14.104036  19491.026459  18250.287349    244.903150
PG08  -9703.881538  14346.282845  19967.978921   -107.499564
PG09   7252.503220  25428.575603  -2290.113563   -222.150658
PG10 -22019.961795 -11468.440144  10035.301700    -23.796123
PG11  21393.521990  -8736.100555 -13053.944845    -98.603101
PG12   9545.560855 -12748.167774 -21520.192352   -337.771411
PG13  13798.017156  -6573.717529  21526.711630    472.639154
PG14  19766.271447  13452.143595  11706.096654    -32.081529
PG15   8017.163809 -15948.739027  19135.438715     11.589031
PG16 -23583.697032   1694.913456  12257.858568   -520.990822
PG17  12645.649312  20651.533436 -10362.689774    698.650983
PG18  -2373.403370 -17370.162961  19911.723816   -131.819503
PG19  15415.263363  11453.034164 -18692.987969    274.850830
PG20  26144.719142  -1591.813878   3687.847266    452.036361
PG21 -16906.942005  19821.676092   2297.679331    153.871622
PG22 -15809.871002  -7760.315932 -19498.967699    422.683194
PG23 -12278.942149 -14890.022448  18313.399399      5.277367
PG24  13829.889681 -22238.860758  -3082.090559    -64.711423
PG25  -1636.042022 -15909.590064 -21550.447244    418.284569
PG26 -26386.462713  -4333.923158   -763.654001    241.293121
PG27 -14908.150730   2260.192608  21656.439173    107.475335
PG28 -15104.095974  -5067.745976 -21283.536605      3.183877
PG29  -2907.515594 -25885.019092  -5018.231793   -584.946518
PG30  11324.958750  11032.716700  21430.832168   -530.992585
PG31 -17739.791872  -1766.350204 -19991.637420   -208.643296
PG32 -15294.432764 -17724.995502 -12570.108967   -389.590322
PJ02 -30195.376391  21655.541391  24935.673583     -0.837823
PJ03 -30706.052752  26923.326128  15684.521737      0.131328
PR01  18904.138876  16509.995020   4588.322345     22.662434
PR02  15544.856281   3294.300637  19976.528365    -23.312886
PR03   3636.139908 -11718.723510  22419.266849     72.086869
PR04 -10028.841653 -19848.522824  12539.182464    174.951539
PR05 -18209.243194 -17377.951854  -4209.186063    107.395143
PR07  -3032.225402  12196.242023 -22147.101541     49.478296
PR08  10252.746127  19836.926969 -12241.037918    -69.379719
PR09 -24799.434966   5750.164065   -747.442386    102.929969
PR11    -13.925420  11188.436392  22927.284143     -2.153024
PR12  18624.308577   4104.775747  16945.840057     24.865288
PR13  24937.712795  -4715.225117   2503.419064    -31.784566
PR14  16637.553546 -11587.699405 -15482.518997     24.316023
PR15  -1121.597948 -11063.982593 -22944.104536     91.210946
PR16 -18370.365918  -4010.063557 -17220.597939     11.005774
PR17  10424.272375 -22243.855652  -6798.456496    602.970935
PR18   3071.851445 -23336.428124   9921.244219     65.738474
PR19  -4919.377532 -13681.250612  20963.900815   -221.117147
PR20 -12589.164976   7408.884312  20909.918297    -87.326299
PR21 -10000.421338  22903.819468   5162.624284   -371.688033
PR22  -3280.744466  22968.557361 -10549.952503     70.070608
PR24  12822.968253  -8375.380086 -20375.065504    145.268647
PR25 -11677.442795  21553.084989   7092.430239     53.870708
EOF
